<?xml version="1.0" encoding="UTF-8"?>
<gpx version="1.1" creator="coach" xmlns="http://www.topografix.com/GPX/1/1">
<metadata><name>Tavira A - Quatro Aguas</name></metadata>
<trk><name>Tavira A - Quatro Aguas</name><trkseg>
<trkpt lat="37.127279" lon="-7.649605"><ele>7.1</ele></trkpt>
<trkpt lat="37.127091" lon="-7.649053"><ele>6.3</ele></trkpt>
<trkpt lat="37.126935" lon="-7.648591"><ele>5.1</ele></trkpt>
<trkpt lat="37.126775" lon="-7.648113"><ele>5.4</ele></trkpt>
<trkpt lat="37.127016" lon="-7.647972"><ele>6.3</ele></trkpt>
<trkpt lat="37.127328" lon="-7.646642"><ele>7.9</ele></trkpt>
<trkpt lat="37.127425" lon="-7.646261"><ele>8.5</ele></trkpt>
<trkpt lat="37.127631" lon="-7.645526"><ele>8.3</ele></trkpt>
<trkpt lat="37.127838" lon="-7.644699"><ele>7.9</ele></trkpt>
<trkpt lat="37.128211" lon="-7.643333"><ele>8.0</ele></trkpt>
<trkpt lat="37.128612" lon="-7.643442"><ele>8.0</ele></trkpt>
<trkpt lat="37.128516" lon="-7.643187"><ele>8.0</ele></trkpt>
<trkpt lat="37.128227" lon="-7.643026"><ele>7.3</ele></trkpt>
<trkpt lat="37.128041" lon="-7.642947"><ele>6.8</ele></trkpt>
<trkpt lat="37.127852" lon="-7.642863"><ele>6.3</ele></trkpt>
<trkpt lat="37.127646" lon="-7.642774"><ele>5.7</ele></trkpt>
<trkpt lat="37.127437" lon="-7.642723"><ele>4.9</ele></trkpt>
<trkpt lat="37.127187" lon="-7.642704"><ele>3.9</ele></trkpt>
<trkpt lat="37.126916" lon="-7.642715"><ele>3.1</ele></trkpt>
<trkpt lat="37.126614" lon="-7.642799"><ele>2.6</ele></trkpt>
<trkpt lat="37.126403" lon="-7.642868"><ele>2.4</ele></trkpt>
<trkpt lat="37.126190" lon="-7.642960"><ele>2.6</ele></trkpt>
<trkpt lat="37.125688" lon="-7.643211"><ele>2.3</ele></trkpt>
<trkpt lat="37.125003" lon="-7.643540"><ele>2.4</ele></trkpt>
<trkpt lat="37.124510" lon="-7.643797"><ele>2.7</ele></trkpt>
<trkpt lat="37.124065" lon="-7.644021"><ele>3.7</ele></trkpt>
<trkpt lat="37.123830" lon="-7.644132"><ele>4.3</ele></trkpt>
<trkpt lat="37.123609" lon="-7.644285"><ele>4.5</ele></trkpt>
<trkpt lat="37.123558" lon="-7.644587"><ele>4.8</ele></trkpt>
<trkpt lat="37.123702" lon="-7.645321"><ele>5.4</ele></trkpt>
<trkpt lat="37.123772" lon="-7.645705"><ele>6.0</ele></trkpt>
<trkpt lat="37.123962" lon="-7.645578"><ele>6.3</ele></trkpt>
<trkpt lat="37.124125" lon="-7.645471"><ele>6.1</ele></trkpt>
<trkpt lat="37.124175" lon="-7.645193"><ele>5.8</ele></trkpt>
<trkpt lat="37.124121" lon="-7.644879"><ele>5.4</ele></trkpt>
<trkpt lat="37.124090" lon="-7.644620"><ele>4.8</ele></trkpt>
<trkpt lat="37.124322" lon="-7.644389"><ele>4.2</ele></trkpt>
<trkpt lat="37.124398" lon="-7.644184"><ele>3.7</ele></trkpt>
<trkpt lat="37.124195" lon="-7.643588"><ele>3.5</ele></trkpt>
<trkpt lat="37.124155" lon="-7.643323"><ele>3.5</ele></trkpt>
<trkpt lat="37.124154" lon="-7.643078"><ele>3.2</ele></trkpt>
<trkpt lat="37.124176" lon="-7.642394"><ele>2.9</ele></trkpt>
<trkpt lat="37.124203" lon="-7.641686"><ele>2.3</ele></trkpt>
<trkpt lat="37.124223" lon="-7.640730"><ele>2.0</ele></trkpt>
<trkpt lat="37.124215" lon="-7.640346"><ele>1.9</ele></trkpt>
<trkpt lat="37.124167" lon="-7.639875"><ele>2.3</ele></trkpt>
<trkpt lat="37.124070" lon="-7.639289"><ele>2.7</ele></trkpt>
<trkpt lat="37.123993" lon="-7.639026"><ele>2.7</ele></trkpt>
<trkpt lat="37.123889" lon="-7.638839"><ele>2.4</ele></trkpt>
<trkpt lat="37.123731" lon="-7.638712"><ele>2.2</ele></trkpt>
<trkpt lat="37.122911" lon="-7.638179"><ele>2.0</ele></trkpt>
<trkpt lat="37.122673" lon="-7.638024"><ele>1.8</ele></trkpt>
<trkpt lat="37.122375" lon="-7.637813"><ele>1.5</ele></trkpt>
<trkpt lat="37.122099" lon="-7.637541"><ele>1.3</ele></trkpt>
<trkpt lat="37.121846" lon="-7.637180"><ele>1.4</ele></trkpt>
<trkpt lat="37.121524" lon="-7.636692"><ele>1.9</ele></trkpt>
<trkpt lat="37.118972" lon="-7.632859"><ele>2.3</ele></trkpt>
<trkpt lat="37.118797" lon="-7.632593"><ele>2.5</ele></trkpt>
<trkpt lat="37.118590" lon="-7.632281"><ele>2.6</ele></trkpt>
<trkpt lat="37.118400" lon="-7.631986"><ele>2.2</ele></trkpt>
<trkpt lat="37.117765" lon="-7.631048"><ele>2.0</ele></trkpt>
<trkpt lat="37.117638" lon="-7.630852"><ele>1.8</ele></trkpt>
<trkpt lat="37.117455" lon="-7.630577"><ele>2.3</ele></trkpt>
<trkpt lat="37.117137" lon="-7.630102"><ele>2.7</ele></trkpt>
<trkpt lat="37.116741" lon="-7.629520"><ele>3.0</ele></trkpt>
<trkpt lat="37.116581" lon="-7.629306"><ele>3.0</ele></trkpt>
<trkpt lat="37.116741" lon="-7.629520"><ele>3.0</ele></trkpt>
<trkpt lat="37.117137" lon="-7.630102"><ele>2.7</ele></trkpt>
<trkpt lat="37.117455" lon="-7.630577"><ele>2.3</ele></trkpt>
<trkpt lat="37.117638" lon="-7.630852"><ele>1.8</ele></trkpt>
<trkpt lat="37.117765" lon="-7.631048"><ele>1.9</ele></trkpt>
<trkpt lat="37.118286" lon="-7.631823"><ele>2.1</ele></trkpt>
<trkpt lat="37.118497" lon="-7.632134"><ele>2.5</ele></trkpt>
<trkpt lat="37.118688" lon="-7.632434"><ele>2.5</ele></trkpt>
<trkpt lat="37.118972" lon="-7.632859"><ele>2.3</ele></trkpt>
<trkpt lat="37.121524" lon="-7.636692"><ele>1.9</ele></trkpt>
<trkpt lat="37.121846" lon="-7.637180"><ele>1.4</ele></trkpt>
<trkpt lat="37.122099" lon="-7.637541"><ele>1.3</ele></trkpt>
<trkpt lat="37.122375" lon="-7.637813"><ele>1.5</ele></trkpt>
<trkpt lat="37.122673" lon="-7.638024"><ele>1.8</ele></trkpt>
<trkpt lat="37.122911" lon="-7.638179"><ele>2.0</ele></trkpt>
<trkpt lat="37.123731" lon="-7.638712"><ele>2.2</ele></trkpt>
<trkpt lat="37.123889" lon="-7.638839"><ele>2.4</ele></trkpt>
<trkpt lat="37.123993" lon="-7.639026"><ele>2.7</ele></trkpt>
<trkpt lat="37.124070" lon="-7.639289"><ele>2.7</ele></trkpt>
<trkpt lat="37.124167" lon="-7.639875"><ele>2.3</ele></trkpt>
<trkpt lat="37.124215" lon="-7.640346"><ele>1.9</ele></trkpt>
<trkpt lat="37.124223" lon="-7.640730"><ele>2.0</ele></trkpt>
<trkpt lat="37.124203" lon="-7.641686"><ele>2.3</ele></trkpt>
<trkpt lat="37.124176" lon="-7.642394"><ele>2.8</ele></trkpt>
<trkpt lat="37.124160" lon="-7.642893"><ele>3.2</ele></trkpt>
<trkpt lat="37.124068" lon="-7.643226"><ele>3.8</ele></trkpt>
<trkpt lat="37.123550" lon="-7.643580"><ele>4.3</ele></trkpt>
<trkpt lat="37.123330" lon="-7.643738"><ele>4.7</ele></trkpt>
<trkpt lat="37.123282" lon="-7.643964"><ele>4.8</ele></trkpt>
<trkpt lat="37.123413" lon="-7.644149"><ele>4.8</ele></trkpt>
<trkpt lat="37.123591" lon="-7.644176"><ele>4.6</ele></trkpt>
<trkpt lat="37.123809" lon="-7.644066"><ele>4.0</ele></trkpt>
<trkpt lat="37.125660" lon="-7.643127"><ele>3.2</ele></trkpt>
<trkpt lat="37.126358" lon="-7.642798"><ele>2.5</ele></trkpt>
<trkpt lat="37.126621" lon="-7.642701"><ele>2.3</ele></trkpt>
<trkpt lat="37.126852" lon="-7.642644"><ele>2.8</ele></trkpt>
<trkpt lat="37.127117" lon="-7.642630"><ele>3.6</ele></trkpt>
<trkpt lat="37.127385" lon="-7.642648"><ele>4.6</ele></trkpt>
<trkpt lat="37.127627" lon="-7.642689"><ele>6.1</ele></trkpt>
<trkpt lat="37.128545" lon="-7.643080"><ele>7.4</ele></trkpt>
<trkpt lat="37.128713" lon="-7.642989"><ele>8.4</ele></trkpt>
<trkpt lat="37.128797" lon="-7.642610"><ele>8.6</ele></trkpt>
<trkpt lat="37.128934" lon="-7.642398"><ele>9.1</ele></trkpt>
<trkpt lat="37.129100" lon="-7.642529"><ele>9.5</ele></trkpt>
<trkpt lat="37.129026" lon="-7.642734"><ele>9.5</ele></trkpt>
<trkpt lat="37.128819" lon="-7.642735"><ele>9.0</ele></trkpt>
<trkpt lat="37.128729" lon="-7.642918"><ele>8.6</ele></trkpt>
<trkpt lat="37.128668" lon="-7.643167"><ele>8.6</ele></trkpt>
<trkpt lat="37.128612" lon="-7.643442"><ele>9.0</ele></trkpt>
<trkpt lat="37.128462" lon="-7.644113"><ele>9.3</ele></trkpt>
<trkpt lat="37.128412" lon="-7.644401"><ele>9.5</ele></trkpt>
<trkpt lat="37.128354" lon="-7.644693"><ele>9.4</ele></trkpt>
<trkpt lat="37.128225" lon="-7.645398"><ele>9.5</ele></trkpt>
<trkpt lat="37.128152" lon="-7.645731"><ele>10.0</ele></trkpt>
<trkpt lat="37.127999" lon="-7.646350"><ele>10.4</ele></trkpt>
<trkpt lat="37.127913" lon="-7.646640"><ele>10.8</ele></trkpt>
<trkpt lat="37.127842" lon="-7.646868"><ele>10.9</ele></trkpt>
<trkpt lat="37.127674" lon="-7.647400"><ele>10.9</ele></trkpt>
<trkpt lat="37.127618" lon="-7.647668"><ele>10.9</ele></trkpt>
<trkpt lat="37.127678" lon="-7.647951"><ele>11.1</ele></trkpt>
<trkpt lat="37.127803" lon="-7.648225"><ele>11.5</ele></trkpt>
<trkpt lat="37.127921" lon="-7.648571"><ele>11.8</ele></trkpt>
<trkpt lat="37.128033" lon="-7.648963"><ele>11.9</ele></trkpt>
<trkpt lat="37.128150" lon="-7.649271"><ele>11.9</ele></trkpt>
<trkpt lat="37.128286" lon="-7.649437"><ele>12.0</ele></trkpt>
<trkpt lat="37.128492" lon="-7.649529"><ele>12.2</ele></trkpt>
<trkpt lat="37.128530" lon="-7.649645"><ele>12.0</ele></trkpt>
<trkpt lat="37.127910" lon="-7.649754"><ele>11.2</ele></trkpt>
<trkpt lat="37.127599" lon="-7.649671"><ele>9.8</ele></trkpt>
<trkpt lat="37.127345" lon="-7.649601"><ele>8.4</ele></trkpt>
<trkpt lat="37.127279" lon="-7.649605"><ele>7.1</ele></trkpt>
</trkseg></trk></gpx>
