<?xml version="1.0" encoding="UTF-8"?>
<gpx version="1.1" creator="coach" xmlns="http://www.topografix.com/GPX/1/1">
<metadata><name>Tavira B - Ecovia West</name></metadata>
<trk><name>Tavira B - Ecovia West</name><trkseg>
<trkpt lat="37.127279" lon="-7.649605"><ele>7.1</ele></trkpt>
<trkpt lat="37.127091" lon="-7.649053"><ele>6.3</ele></trkpt>
<trkpt lat="37.126935" lon="-7.648591"><ele>5.1</ele></trkpt>
<trkpt lat="37.126775" lon="-7.648113"><ele>5.4</ele></trkpt>
<trkpt lat="37.127016" lon="-7.647972"><ele>6.3</ele></trkpt>
<trkpt lat="37.127328" lon="-7.646642"><ele>7.9</ele></trkpt>
<trkpt lat="37.127425" lon="-7.646261"><ele>8.5</ele></trkpt>
<trkpt lat="37.127631" lon="-7.645526"><ele>8.3</ele></trkpt>
<trkpt lat="37.127838" lon="-7.644699"><ele>7.9</ele></trkpt>
<trkpt lat="37.128211" lon="-7.643333"><ele>8.0</ele></trkpt>
<trkpt lat="37.128612" lon="-7.643442"><ele>8.0</ele></trkpt>
<trkpt lat="37.128516" lon="-7.643187"><ele>8.0</ele></trkpt>
<trkpt lat="37.128227" lon="-7.643026"><ele>7.3</ele></trkpt>
<trkpt lat="37.128041" lon="-7.642947"><ele>6.8</ele></trkpt>
<trkpt lat="37.127852" lon="-7.642863"><ele>6.3</ele></trkpt>
<trkpt lat="37.127646" lon="-7.642774"><ele>5.7</ele></trkpt>
<trkpt lat="37.127437" lon="-7.642723"><ele>4.9</ele></trkpt>
<trkpt lat="37.127187" lon="-7.642704"><ele>3.9</ele></trkpt>
<trkpt lat="37.126916" lon="-7.642715"><ele>3.1</ele></trkpt>
<trkpt lat="37.126614" lon="-7.642799"><ele>2.6</ele></trkpt>
<trkpt lat="37.126403" lon="-7.642868"><ele>2.4</ele></trkpt>
<trkpt lat="37.126190" lon="-7.642960"><ele>2.6</ele></trkpt>
<trkpt lat="37.125688" lon="-7.643211"><ele>2.3</ele></trkpt>
<trkpt lat="37.125003" lon="-7.643540"><ele>2.4</ele></trkpt>
<trkpt lat="37.124510" lon="-7.643797"><ele>2.7</ele></trkpt>
<trkpt lat="37.124065" lon="-7.644021"><ele>3.7</ele></trkpt>
<trkpt lat="37.123830" lon="-7.644132"><ele>4.3</ele></trkpt>
<trkpt lat="37.123418" lon="-7.644338"><ele>4.5</ele></trkpt>
<trkpt lat="37.123199" lon="-7.644445"><ele>4.5</ele></trkpt>
<trkpt lat="37.122614" lon="-7.644755"><ele>4.4</ele></trkpt>
<trkpt lat="37.122439" lon="-7.644919"><ele>4.5</ele></trkpt>
<trkpt lat="37.122285" lon="-7.645098"><ele>5.5</ele></trkpt>
<trkpt lat="37.122030" lon="-7.645576"><ele>6.9</ele></trkpt>
<trkpt lat="37.121930" lon="-7.645864"><ele>9.0</ele></trkpt>
<trkpt lat="37.121700" lon="-7.646488"><ele>10.4</ele></trkpt>
<trkpt lat="37.121578" lon="-7.646830"><ele>11.4</ele></trkpt>
<trkpt lat="37.121596" lon="-7.647043"><ele>11.8</ele></trkpt>
<trkpt lat="37.121498" lon="-7.647216"><ele>12.4</ele></trkpt>
<trkpt lat="37.121300" lon="-7.647612"><ele>13.1</ele></trkpt>
<trkpt lat="37.121194" lon="-7.647925"><ele>14.1</ele></trkpt>
<trkpt lat="37.121057" lon="-7.648322"><ele>15.0</ele></trkpt>
<trkpt lat="37.121023" lon="-7.648550"><ele>16.1</ele></trkpt>
<trkpt lat="37.121085" lon="-7.648901"><ele>17.2</ele></trkpt>
<trkpt lat="37.121178" lon="-7.649213"><ele>19.6</ele></trkpt>
<trkpt lat="37.121314" lon="-7.650548"><ele>21.8</ele></trkpt>
<trkpt lat="37.120809" lon="-7.650641"><ele>23.3</ele></trkpt>
<trkpt lat="37.120521" lon="-7.650670"><ele>23.0</ele></trkpt>
<trkpt lat="37.120314" lon="-7.650728"><ele>22.3</ele></trkpt>
<trkpt lat="37.120116" lon="-7.650770"><ele>21.4</ele></trkpt>
<trkpt lat="37.119774" lon="-7.650788"><ele>20.4</ele></trkpt>
<trkpt lat="37.119454" lon="-7.650799"><ele>19.3</ele></trkpt>
<trkpt lat="37.119235" lon="-7.650849"><ele>18.4</ele></trkpt>
<trkpt lat="37.118888" lon="-7.650919"><ele>18.0</ele></trkpt>
<trkpt lat="37.118467" lon="-7.651021"><ele>17.8</ele></trkpt>
<trkpt lat="37.118194" lon="-7.651069"><ele>17.8</ele></trkpt>
<trkpt lat="37.118078" lon="-7.651179"><ele>16.9</ele></trkpt>
<trkpt lat="37.117369" lon="-7.651095"><ele>15.6</ele></trkpt>
<trkpt lat="37.116963" lon="-7.651219"><ele>14.0</ele></trkpt>
<trkpt lat="37.116558" lon="-7.651373"><ele>13.2</ele></trkpt>
<trkpt lat="37.116118" lon="-7.651554"><ele>12.7</ele></trkpt>
<trkpt lat="37.115693" lon="-7.651720"><ele>12.2</ele></trkpt>
<trkpt lat="37.115440" lon="-7.651821"><ele>10.9</ele></trkpt>
<trkpt lat="37.113979" lon="-7.652513"><ele>9.3</ele></trkpt>
<trkpt lat="37.112855" lon="-7.653023"><ele>8.0</ele></trkpt>
<trkpt lat="37.112520" lon="-7.653335"><ele>7.6</ele></trkpt>
<trkpt lat="37.112292" lon="-7.653558"><ele>7.7</ele></trkpt>
<trkpt lat="37.112121" lon="-7.653707"><ele>7.9</ele></trkpt>
<trkpt lat="37.111571" lon="-7.654219"><ele>8.2</ele></trkpt>
<trkpt lat="37.111166" lon="-7.654348"><ele>9.0</ele></trkpt>
<trkpt lat="37.110648" lon="-7.654350"><ele>10.3</ele></trkpt>
<trkpt lat="37.110053" lon="-7.654352"><ele>11.6</ele></trkpt>
<trkpt lat="37.109586" lon="-7.654420"><ele>12.1</ele></trkpt>
<trkpt lat="37.109006" lon="-7.654657"><ele>10.7</ele></trkpt>
<trkpt lat="37.107456" lon="-7.655459"><ele>8.6</ele></trkpt>
<trkpt lat="37.106236" lon="-7.656084"><ele>7.0</ele></trkpt>
<trkpt lat="37.105127" lon="-7.656652"><ele>6.7</ele></trkpt>
<trkpt lat="37.104883" lon="-7.656820"><ele>7.0</ele></trkpt>
<trkpt lat="37.104664" lon="-7.657028"><ele>7.3</ele></trkpt>
<trkpt lat="37.104498" lon="-7.657238"><ele>7.4</ele></trkpt>
<trkpt lat="37.104198" lon="-7.657708"><ele>7.5</ele></trkpt>
<trkpt lat="37.104498" lon="-7.657238"><ele>7.4</ele></trkpt>
<trkpt lat="37.104664" lon="-7.657028"><ele>7.3</ele></trkpt>
<trkpt lat="37.104883" lon="-7.656820"><ele>7.0</ele></trkpt>
<trkpt lat="37.105127" lon="-7.656652"><ele>6.7</ele></trkpt>
<trkpt lat="37.106236" lon="-7.656084"><ele>7.0</ele></trkpt>
<trkpt lat="37.107456" lon="-7.655459"><ele>8.6</ele></trkpt>
<trkpt lat="37.109006" lon="-7.654657"><ele>10.7</ele></trkpt>
<trkpt lat="37.109586" lon="-7.654420"><ele>12.1</ele></trkpt>
<trkpt lat="37.110053" lon="-7.654352"><ele>11.6</ele></trkpt>
<trkpt lat="37.110648" lon="-7.654350"><ele>10.4</ele></trkpt>
<trkpt lat="37.110990" lon="-7.654349"><ele>9.1</ele></trkpt>
<trkpt lat="37.111525" lon="-7.654261"><ele>8.4</ele></trkpt>
<trkpt lat="37.112062" lon="-7.653761"><ele>7.9</ele></trkpt>
<trkpt lat="37.112292" lon="-7.653558"><ele>7.7</ele></trkpt>
<trkpt lat="37.112520" lon="-7.653335"><ele>7.6</ele></trkpt>
<trkpt lat="37.112855" lon="-7.653023"><ele>8.0</ele></trkpt>
<trkpt lat="37.113953" lon="-7.652525"><ele>9.2</ele></trkpt>
<trkpt lat="37.115440" lon="-7.651821"><ele>10.8</ele></trkpt>
<trkpt lat="37.115642" lon="-7.651740"><ele>12.1</ele></trkpt>
<trkpt lat="37.116118" lon="-7.651554"><ele>12.6</ele></trkpt>
<trkpt lat="37.116468" lon="-7.651410"><ele>13.2</ele></trkpt>
<trkpt lat="37.116963" lon="-7.651219"><ele>14.0</ele></trkpt>
<trkpt lat="37.117369" lon="-7.651095"><ele>15.5</ele></trkpt>
<trkpt lat="37.117956" lon="-7.651099"><ele>16.7</ele></trkpt>
<trkpt lat="37.118090" lon="-7.650998"><ele>17.6</ele></trkpt>
<trkpt lat="37.118330" lon="-7.651046"><ele>17.8</ele></trkpt>
<trkpt lat="37.118888" lon="-7.650919"><ele>18.0</ele></trkpt>
<trkpt lat="37.119235" lon="-7.650849"><ele>18.4</ele></trkpt>
<trkpt lat="37.119454" lon="-7.650799"><ele>19.2</ele></trkpt>
<trkpt lat="37.119677" lon="-7.650771"><ele>19.9</ele></trkpt>
<trkpt lat="37.119895" lon="-7.650722"><ele>20.6</ele></trkpt>
<trkpt lat="37.120071" lon="-7.650725"><ele>21.2</ele></trkpt>
<trkpt lat="37.120110" lon="-7.650951"><ele>22.2</ele></trkpt>
<trkpt lat="37.120150" lon="-7.651458"><ele>23.3</ele></trkpt>
<trkpt lat="37.120245" lon="-7.651730"><ele>25.0</ele></trkpt>
<trkpt lat="37.120553" lon="-7.651968"><ele>26.7</ele></trkpt>
<trkpt lat="37.120800" lon="-7.652107"><ele>28.2</ele></trkpt>
<trkpt lat="37.120943" lon="-7.652129"><ele>29.0</ele></trkpt>
<trkpt lat="37.120941" lon="-7.652444"><ele>29.1</ele></trkpt>
<trkpt lat="37.120981" lon="-7.653009"><ele>29.0</ele></trkpt>
<trkpt lat="37.120990" lon="-7.653464"><ele>29.1</ele></trkpt>
<trkpt lat="37.120987" lon="-7.654019"><ele>30.2</ele></trkpt>
<trkpt lat="37.120967" lon="-7.654751"><ele>31.5</ele></trkpt>
<trkpt lat="37.121031" lon="-7.655025"><ele>32.4</ele></trkpt>
<trkpt lat="37.121211" lon="-7.655236"><ele>32.7</ele></trkpt>
<trkpt lat="37.121571" lon="-7.655261"><ele>32.6</ele></trkpt>
<trkpt lat="37.121970" lon="-7.655249"><ele>32.2</ele></trkpt>
<trkpt lat="37.122158" lon="-7.655238"><ele>31.6</ele></trkpt>
<trkpt lat="37.122434" lon="-7.655170"><ele>31.0</ele></trkpt>
<trkpt lat="37.122608" lon="-7.655047"><ele>30.4</ele></trkpt>
<trkpt lat="37.122757" lon="-7.654949"><ele>30.2</ele></trkpt>
<trkpt lat="37.123000" lon="-7.654918"><ele>30.0</ele></trkpt>
<trkpt lat="37.123284" lon="-7.654908"><ele>29.9</ele></trkpt>
<trkpt lat="37.123484" lon="-7.654909"><ele>28.4</ele></trkpt>
<trkpt lat="37.124194" lon="-7.654967"><ele>26.1</ele></trkpt>
<trkpt lat="37.124445" lon="-7.654978"><ele>23.5</ele></trkpt>
<trkpt lat="37.124592" lon="-7.654911"><ele>21.6</ele></trkpt>
<trkpt lat="37.124774" lon="-7.654802"><ele>19.4</ele></trkpt>
<trkpt lat="37.125050" lon="-7.654499"><ele>17.4</ele></trkpt>
<trkpt lat="37.125229" lon="-7.654263"><ele>15.8</ele></trkpt>
<trkpt lat="37.125409" lon="-7.654137"><ele>14.7</ele></trkpt>
<trkpt lat="37.125590" lon="-7.654076"><ele>13.6</ele></trkpt>
<trkpt lat="37.125776" lon="-7.653985"><ele>12.7</ele></trkpt>
<trkpt lat="37.125999" lon="-7.653843"><ele>11.7</ele></trkpt>
<trkpt lat="37.126342" lon="-7.653611"><ele>10.7</ele></trkpt>
<trkpt lat="37.126794" lon="-7.653338"><ele>9.8</ele></trkpt>
<trkpt lat="37.127038" lon="-7.653175"><ele>10.0</ele></trkpt>
<trkpt lat="37.127729" lon="-7.653408"><ele>10.7</ele></trkpt>
<trkpt lat="37.128102" lon="-7.653513"><ele>11.1</ele></trkpt>
<trkpt lat="37.128411" lon="-7.653577"><ele>9.1</ele></trkpt>
<trkpt lat="37.128653" lon="-7.653409"><ele>7.4</ele></trkpt>
<trkpt lat="37.128911" lon="-7.652706"><ele>7.9</ele></trkpt>
<trkpt lat="37.129001" lon="-7.652468"><ele>11.1</ele></trkpt>
<trkpt lat="37.129117" lon="-7.652086"><ele>14.4</ele></trkpt>
<trkpt lat="37.129242" lon="-7.651552"><ele>16.2</ele></trkpt>
<trkpt lat="37.129192" lon="-7.651314"><ele>16.8</ele></trkpt>
<trkpt lat="37.128985" lon="-7.651194"><ele>16.4</ele></trkpt>
<trkpt lat="37.128840" lon="-7.650967"><ele>15.9</ele></trkpt>
<trkpt lat="37.128677" lon="-7.650790"><ele>15.4</ele></trkpt>
<trkpt lat="37.128450" lon="-7.650641"><ele>14.6</ele></trkpt>
<trkpt lat="37.128221" lon="-7.650443"><ele>13.7</ele></trkpt>
<trkpt lat="37.128056" lon="-7.650236"><ele>12.3</ele></trkpt>
<trkpt lat="37.127834" lon="-7.650084"><ele>11.3</ele></trkpt>
<trkpt lat="37.127790" lon="-7.649826"><ele>10.5</ele></trkpt>
<trkpt lat="37.127599" lon="-7.649671"><ele>9.7</ele></trkpt>
<trkpt lat="37.127345" lon="-7.649601"><ele>8.4</ele></trkpt>
<trkpt lat="37.127279" lon="-7.649605"><ele>7.1</ele></trkpt>
</trkseg></trk></gpx>
