<?xml version="1.0" encoding="UTF-8"?>
<gpx version="1.1" creator="coach" xmlns="http://www.topografix.com/GPX/1/1">
<metadata><name>Tavira C - Hill Session</name></metadata>
<trk><name>Tavira C - Hill Session</name><trkseg>
<trkpt lat="37.127279" lon="-7.649605"><ele>7.1</ele></trkpt>
<trkpt lat="37.127091" lon="-7.649053"><ele>6.3</ele></trkpt>
<trkpt lat="37.126935" lon="-7.648591"><ele>5.1</ele></trkpt>
<trkpt lat="37.126775" lon="-7.648113"><ele>5.4</ele></trkpt>
<trkpt lat="37.127016" lon="-7.647972"><ele>6.3</ele></trkpt>
<trkpt lat="37.127328" lon="-7.646642"><ele>7.9</ele></trkpt>
<trkpt lat="37.127425" lon="-7.646261"><ele>8.5</ele></trkpt>
<trkpt lat="37.127631" lon="-7.645526"><ele>8.3</ele></trkpt>
<trkpt lat="37.127838" lon="-7.644699"><ele>7.9</ele></trkpt>
<trkpt lat="37.128211" lon="-7.643333"><ele>8.0</ele></trkpt>
<trkpt lat="37.128612" lon="-7.643442"><ele>8.0</ele></trkpt>
<trkpt lat="37.128516" lon="-7.643187"><ele>8.0</ele></trkpt>
<trkpt lat="37.128227" lon="-7.643026"><ele>7.3</ele></trkpt>
<trkpt lat="37.128041" lon="-7.642947"><ele>6.8</ele></trkpt>
<trkpt lat="37.127852" lon="-7.642863"><ele>6.3</ele></trkpt>
<trkpt lat="37.127646" lon="-7.642774"><ele>5.7</ele></trkpt>
<trkpt lat="37.127437" lon="-7.642723"><ele>4.9</ele></trkpt>
<trkpt lat="37.127187" lon="-7.642704"><ele>3.9</ele></trkpt>
<trkpt lat="37.126916" lon="-7.642715"><ele>3.1</ele></trkpt>
<trkpt lat="37.126614" lon="-7.642799"><ele>2.6</ele></trkpt>
<trkpt lat="37.126403" lon="-7.642868"><ele>2.4</ele></trkpt>
<trkpt lat="37.126190" lon="-7.642960"><ele>2.6</ele></trkpt>
<trkpt lat="37.125688" lon="-7.643211"><ele>2.3</ele></trkpt>
<trkpt lat="37.125003" lon="-7.643540"><ele>2.4</ele></trkpt>
<trkpt lat="37.124510" lon="-7.643797"><ele>2.7</ele></trkpt>
<trkpt lat="37.124065" lon="-7.644021"><ele>3.7</ele></trkpt>
<trkpt lat="37.123830" lon="-7.644132"><ele>4.3</ele></trkpt>
<trkpt lat="37.123609" lon="-7.644285"><ele>4.5</ele></trkpt>
<trkpt lat="37.123558" lon="-7.644587"><ele>4.8</ele></trkpt>
<trkpt lat="37.123702" lon="-7.645321"><ele>5.4</ele></trkpt>
<trkpt lat="37.123772" lon="-7.645705"><ele>6.0</ele></trkpt>
<trkpt lat="37.123962" lon="-7.645578"><ele>6.3</ele></trkpt>
<trkpt lat="37.124125" lon="-7.645471"><ele>6.1</ele></trkpt>
<trkpt lat="37.124175" lon="-7.645193"><ele>5.8</ele></trkpt>
<trkpt lat="37.124121" lon="-7.644879"><ele>5.4</ele></trkpt>
<trkpt lat="37.124090" lon="-7.644620"><ele>4.8</ele></trkpt>
<trkpt lat="37.124322" lon="-7.644389"><ele>4.2</ele></trkpt>
<trkpt lat="37.124398" lon="-7.644184"><ele>3.7</ele></trkpt>
<trkpt lat="37.124195" lon="-7.643588"><ele>3.6</ele></trkpt>
<trkpt lat="37.124061" lon="-7.643319"><ele>3.9</ele></trkpt>
<trkpt lat="37.123550" lon="-7.643580"><ele>4.3</ele></trkpt>
<trkpt lat="37.123330" lon="-7.643738"><ele>4.7</ele></trkpt>
<trkpt lat="37.123282" lon="-7.643964"><ele>4.8</ele></trkpt>
<trkpt lat="37.123413" lon="-7.644149"><ele>4.8</ele></trkpt>
<trkpt lat="37.123591" lon="-7.644176"><ele>4.6</ele></trkpt>
<trkpt lat="37.123809" lon="-7.644066"><ele>4.0</ele></trkpt>
<trkpt lat="37.125660" lon="-7.643127"><ele>3.2</ele></trkpt>
<trkpt lat="37.126358" lon="-7.642798"><ele>2.5</ele></trkpt>
<trkpt lat="37.126621" lon="-7.642701"><ele>2.3</ele></trkpt>
<trkpt lat="37.126852" lon="-7.642644"><ele>2.8</ele></trkpt>
<trkpt lat="37.127117" lon="-7.642630"><ele>3.6</ele></trkpt>
<trkpt lat="37.127385" lon="-7.642648"><ele>4.6</ele></trkpt>
<trkpt lat="37.127627" lon="-7.642689"><ele>6.1</ele></trkpt>
<trkpt lat="37.128545" lon="-7.643080"><ele>7.4</ele></trkpt>
<trkpt lat="37.128713" lon="-7.642989"><ele>8.4</ele></trkpt>
<trkpt lat="37.128797" lon="-7.642610"><ele>8.6</ele></trkpt>
<trkpt lat="37.128934" lon="-7.642398"><ele>9.1</ele></trkpt>
<trkpt lat="37.129100" lon="-7.642529"><ele>9.5</ele></trkpt>
<trkpt lat="37.129026" lon="-7.642734"><ele>9.5</ele></trkpt>
<trkpt lat="37.128819" lon="-7.642735"><ele>9.0</ele></trkpt>
<trkpt lat="37.128729" lon="-7.642918"><ele>8.6</ele></trkpt>
<trkpt lat="37.128668" lon="-7.643167"><ele>8.6</ele></trkpt>
<trkpt lat="37.128612" lon="-7.643442"><ele>9.0</ele></trkpt>
<trkpt lat="37.128462" lon="-7.644113"><ele>9.3</ele></trkpt>
<trkpt lat="37.128412" lon="-7.644401"><ele>9.5</ele></trkpt>
<trkpt lat="37.128354" lon="-7.644693"><ele>9.4</ele></trkpt>
<trkpt lat="37.128225" lon="-7.645398"><ele>9.5</ele></trkpt>
<trkpt lat="37.128152" lon="-7.645731"><ele>10.0</ele></trkpt>
<trkpt lat="37.127999" lon="-7.646350"><ele>10.4</ele></trkpt>
<trkpt lat="37.127913" lon="-7.646640"><ele>10.8</ele></trkpt>
<trkpt lat="37.127842" lon="-7.646868"><ele>10.9</ele></trkpt>
<trkpt lat="37.127674" lon="-7.647400"><ele>10.9</ele></trkpt>
<trkpt lat="37.127618" lon="-7.647668"><ele>10.9</ele></trkpt>
<trkpt lat="37.127678" lon="-7.647951"><ele>11.1</ele></trkpt>
<trkpt lat="37.127803" lon="-7.648225"><ele>11.5</ele></trkpt>
<trkpt lat="37.127921" lon="-7.648571"><ele>11.8</ele></trkpt>
<trkpt lat="37.128033" lon="-7.648963"><ele>11.9</ele></trkpt>
<trkpt lat="37.128150" lon="-7.649271"><ele>11.9</ele></trkpt>
<trkpt lat="37.128286" lon="-7.649437"><ele>12.0</ele></trkpt>
<trkpt lat="37.128492" lon="-7.649529"><ele>12.2</ele></trkpt>
<trkpt lat="37.128530" lon="-7.649645"><ele>12.0</ele></trkpt>
<trkpt lat="37.127910" lon="-7.649754"><ele>11.2</ele></trkpt>
<trkpt lat="37.127599" lon="-7.649671"><ele>9.8</ele></trkpt>
<trkpt lat="37.127345" lon="-7.649601"><ele>8.0</ele></trkpt>
<trkpt lat="37.127091" lon="-7.649053"><ele>6.7</ele></trkpt>
<trkpt lat="37.126935" lon="-7.648591"><ele>5.1</ele></trkpt>
<trkpt lat="37.126775" lon="-7.648113"><ele>5.4</ele></trkpt>
<trkpt lat="37.127016" lon="-7.647972"><ele>6.3</ele></trkpt>
<trkpt lat="37.127328" lon="-7.646642"><ele>8.3</ele></trkpt>
<trkpt lat="37.127571" lon="-7.646736"><ele>9.7</ele></trkpt>
<trkpt lat="37.127842" lon="-7.646868"><ele>10.5</ele></trkpt>
<trkpt lat="37.127674" lon="-7.647400"><ele>10.9</ele></trkpt>
<trkpt lat="37.127618" lon="-7.647668"><ele>10.9</ele></trkpt>
<trkpt lat="37.127678" lon="-7.647951"><ele>11.1</ele></trkpt>
<trkpt lat="37.127803" lon="-7.648225"><ele>11.5</ele></trkpt>
<trkpt lat="37.127921" lon="-7.648571"><ele>11.8</ele></trkpt>
<trkpt lat="37.128033" lon="-7.648963"><ele>11.9</ele></trkpt>
<trkpt lat="37.128150" lon="-7.649271"><ele>11.9</ele></trkpt>
<trkpt lat="37.128286" lon="-7.649437"><ele>12.0</ele></trkpt>
<trkpt lat="37.128492" lon="-7.649529"><ele>12.3</ele></trkpt>
<trkpt lat="37.128673" lon="-7.649580"><ele>12.7</ele></trkpt>
<trkpt lat="37.129084" lon="-7.649647"><ele>13.1</ele></trkpt>
<trkpt lat="37.129324" lon="-7.649619"><ele>13.6</ele></trkpt>
<trkpt lat="37.129654" lon="-7.649485"><ele>14.1</ele></trkpt>
<trkpt lat="37.129685" lon="-7.649751"><ele>14.7</ele></trkpt>
<trkpt lat="37.129665" lon="-7.650007"><ele>15.4</ele></trkpt>
<trkpt lat="37.129579" lon="-7.650225"><ele>16.1</ele></trkpt>
<trkpt lat="37.129521" lon="-7.650569"><ele>16.9</ele></trkpt>
<trkpt lat="37.129521" lon="-7.650830"><ele>17.5</ele></trkpt>
<trkpt lat="37.129361" lon="-7.651111"><ele>17.6</ele></trkpt>
<trkpt lat="37.129278" lon="-7.651371"><ele>16.6</ele></trkpt>
<trkpt lat="37.129117" lon="-7.652086"><ele>14.9</ele></trkpt>
<trkpt lat="37.129021" lon="-7.652396"><ele>11.4</ele></trkpt>
<trkpt lat="37.128911" lon="-7.652706"><ele>8.2</ele></trkpt>
<trkpt lat="37.128653" lon="-7.653409"><ele>7.3</ele></trkpt>
<trkpt lat="37.128513" lon="-7.653599"><ele>8.9</ele></trkpt>
<trkpt lat="37.128102" lon="-7.653513"><ele>11.0</ele></trkpt>
<trkpt lat="37.127729" lon="-7.653408"><ele>10.7</ele></trkpt>
<trkpt lat="37.127038" lon="-7.653175"><ele>10.0</ele></trkpt>
<trkpt lat="37.126794" lon="-7.653338"><ele>9.8</ele></trkpt>
<trkpt lat="37.126342" lon="-7.653611"><ele>10.6</ele></trkpt>
<trkpt lat="37.126090" lon="-7.653778"><ele>11.5</ele></trkpt>
<trkpt lat="37.125906" lon="-7.653906"><ele>12.5</ele></trkpt>
<trkpt lat="37.125590" lon="-7.654076"><ele>13.5</ele></trkpt>
<trkpt lat="37.125409" lon="-7.654137"><ele>14.7</ele></trkpt>
<trkpt lat="37.125229" lon="-7.654263"><ele>15.8</ele></trkpt>
<trkpt lat="37.125050" lon="-7.654499"><ele>17.2</ele></trkpt>
<trkpt lat="37.124849" lon="-7.654713"><ele>18.7</ele></trkpt>
<trkpt lat="37.124689" lon="-7.654890"><ele>20.5</ele></trkpt>
<trkpt lat="37.124565" lon="-7.655016"><ele>21.5</ele></trkpt>
<trkpt lat="37.124610" lon="-7.654936"><ele>21.1</ele></trkpt>
<trkpt lat="37.124774" lon="-7.654802"><ele>19.4</ele></trkpt>
<trkpt lat="37.125050" lon="-7.654499"><ele>17.4</ele></trkpt>
<trkpt lat="37.125229" lon="-7.654263"><ele>15.8</ele></trkpt>
<trkpt lat="37.125409" lon="-7.654137"><ele>14.7</ele></trkpt>
<trkpt lat="37.125590" lon="-7.654076"><ele>13.6</ele></trkpt>
<trkpt lat="37.125776" lon="-7.653985"><ele>12.7</ele></trkpt>
<trkpt lat="37.125999" lon="-7.653843"><ele>11.7</ele></trkpt>
<trkpt lat="37.126342" lon="-7.653611"><ele>10.7</ele></trkpt>
<trkpt lat="37.126794" lon="-7.653338"><ele>9.8</ele></trkpt>
<trkpt lat="37.127038" lon="-7.653175"><ele>10.0</ele></trkpt>
<trkpt lat="37.127729" lon="-7.653408"><ele>10.7</ele></trkpt>
<trkpt lat="37.128102" lon="-7.653513"><ele>11.1</ele></trkpt>
<trkpt lat="37.128411" lon="-7.653577"><ele>9.1</ele></trkpt>
<trkpt lat="37.128653" lon="-7.653409"><ele>7.4</ele></trkpt>
<trkpt lat="37.128911" lon="-7.652706"><ele>7.9</ele></trkpt>
<trkpt lat="37.129001" lon="-7.652468"><ele>11.1</ele></trkpt>
<trkpt lat="37.129117" lon="-7.652086"><ele>14.4</ele></trkpt>
<trkpt lat="37.129242" lon="-7.651552"><ele>16.2</ele></trkpt>
<trkpt lat="37.129192" lon="-7.651314"><ele>16.8</ele></trkpt>
<trkpt lat="37.128985" lon="-7.651194"><ele>16.4</ele></trkpt>
<trkpt lat="37.128840" lon="-7.650967"><ele>15.9</ele></trkpt>
<trkpt lat="37.128677" lon="-7.650790"><ele>15.4</ele></trkpt>
<trkpt lat="37.128450" lon="-7.650641"><ele>14.6</ele></trkpt>
<trkpt lat="37.128221" lon="-7.650443"><ele>13.7</ele></trkpt>
<trkpt lat="37.128056" lon="-7.650236"><ele>12.3</ele></trkpt>
<trkpt lat="37.127834" lon="-7.650084"><ele>11.3</ele></trkpt>
<trkpt lat="37.127790" lon="-7.649826"><ele>10.5</ele></trkpt>
<trkpt lat="37.127599" lon="-7.649671"><ele>9.7</ele></trkpt>
<trkpt lat="37.127345" lon="-7.649601"><ele>8.4</ele></trkpt>
<trkpt lat="37.127279" lon="-7.649605"><ele>7.1</ele></trkpt>
</trkseg></trk></gpx>
