<?xml version="1.0" encoding="UTF-8"?>
<gpx version="1.1" creator="coach" xmlns="http://www.topografix.com/GPX/1/1">
<metadata><name>Tavira D - Ecovia East</name></metadata>
<trk><name>Tavira D - Ecovia East</name><trkseg>
<trkpt lat="37.127279" lon="-7.649605"><ele>7.1</ele></trkpt>
<trkpt lat="37.127091" lon="-7.649053"><ele>6.3</ele></trkpt>
<trkpt lat="37.126935" lon="-7.648591"><ele>5.1</ele></trkpt>
<trkpt lat="37.126775" lon="-7.648113"><ele>5.4</ele></trkpt>
<trkpt lat="37.127016" lon="-7.647972"><ele>6.3</ele></trkpt>
<trkpt lat="37.127328" lon="-7.646642"><ele>7.9</ele></trkpt>
<trkpt lat="37.127425" lon="-7.646261"><ele>8.5</ele></trkpt>
<trkpt lat="37.127631" lon="-7.645526"><ele>8.3</ele></trkpt>
<trkpt lat="37.127838" lon="-7.644699"><ele>7.9</ele></trkpt>
<trkpt lat="37.128211" lon="-7.643333"><ele>8.0</ele></trkpt>
<trkpt lat="37.128612" lon="-7.643442"><ele>8.2</ele></trkpt>
<trkpt lat="37.128660" lon="-7.643206"><ele>8.6</ele></trkpt>
<trkpt lat="37.128713" lon="-7.642989"><ele>8.6</ele></trkpt>
<trkpt lat="37.128797" lon="-7.642610"><ele>8.3</ele></trkpt>
<trkpt lat="37.128889" lon="-7.642091"><ele>6.9</ele></trkpt>
<trkpt lat="37.129225" lon="-7.640504"><ele>5.9</ele></trkpt>
<trkpt lat="37.129578" lon="-7.638838"><ele>5.1</ele></trkpt>
<trkpt lat="37.129745" lon="-7.638205"><ele>5.0</ele></trkpt>
<trkpt lat="37.130020" lon="-7.637233"><ele>4.7</ele></trkpt>
<trkpt lat="37.130107" lon="-7.637007"><ele>4.4</ele></trkpt>
<trkpt lat="37.130135" lon="-7.636710"><ele>4.5</ele></trkpt>
<trkpt lat="37.130262" lon="-7.636448"><ele>4.6</ele></trkpt>
<trkpt lat="37.130447" lon="-7.636455"><ele>4.9</ele></trkpt>
<trkpt lat="37.130672" lon="-7.636467"><ele>6.4</ele></trkpt>
<trkpt lat="37.132023" lon="-7.635832"><ele>8.2</ele></trkpt>
<trkpt lat="37.133793" lon="-7.634996"><ele>10.2</ele></trkpt>
<trkpt lat="37.134129" lon="-7.634824"><ele>11.4</ele></trkpt>
<trkpt lat="37.134439" lon="-7.634656"><ele>12.3</ele></trkpt>
<trkpt lat="37.134593" lon="-7.634420"><ele>13.4</ele></trkpt>
<trkpt lat="37.134693" lon="-7.634036"><ele>14.4</ele></trkpt>
<trkpt lat="37.134714" lon="-7.633777"><ele>15.5</ele></trkpt>
<trkpt lat="37.134738" lon="-7.633331"><ele>16.6</ele></trkpt>
<trkpt lat="37.134750" lon="-7.632825"><ele>18.0</ele></trkpt>
<trkpt lat="37.134792" lon="-7.631298"><ele>19.1</ele></trkpt>
<trkpt lat="37.134810" lon="-7.630654"><ele>19.6</ele></trkpt>
<trkpt lat="37.134848" lon="-7.629252"><ele>19.7</ele></trkpt>
<trkpt lat="37.134886" lon="-7.628717"><ele>19.7</ele></trkpt>
<trkpt lat="37.134962" lon="-7.628262"><ele>20.6</ele></trkpt>
<trkpt lat="37.135167" lon="-7.627466"><ele>21.5</ele></trkpt>
<trkpt lat="37.135607" lon="-7.626562"><ele>22.4</ele></trkpt>
<trkpt lat="37.135764" lon="-7.626326"><ele>22.8</ele></trkpt>
<trkpt lat="37.135895" lon="-7.626143"><ele>23.6</ele></trkpt>
<trkpt lat="37.136413" lon="-7.625637"><ele>24.7</ele></trkpt>
<trkpt lat="37.136696" lon="-7.625452"><ele>26.1</ele></trkpt>
<trkpt lat="37.137010" lon="-7.625258"><ele>26.0</ele></trkpt>
<trkpt lat="37.137751" lon="-7.624911"><ele>24.5</ele></trkpt>
<trkpt lat="37.138700" lon="-7.624449"><ele>22.7</ele></trkpt>
<trkpt lat="37.139026" lon="-7.624282"><ele>21.5</ele></trkpt>
<trkpt lat="37.139173" lon="-7.624144"><ele>20.9</ele></trkpt>
<trkpt lat="37.139314" lon="-7.623943"><ele>20.6</ele></trkpt>
<trkpt lat="37.139489" lon="-7.623939"><ele>20.8</ele></trkpt>
<trkpt lat="37.139601" lon="-7.624147"><ele>21.5</ele></trkpt>
<trkpt lat="37.139498" lon="-7.624380"><ele>22.0</ele></trkpt>
<trkpt lat="37.139320" lon="-7.624385"><ele>21.9</ele></trkpt>
<trkpt lat="37.139095" lon="-7.624365"><ele>21.9</ele></trkpt>
<trkpt lat="37.138387" lon="-7.624655"><ele>23.6</ele></trkpt>
<trkpt lat="37.136955" lon="-7.625339"><ele>24.9</ele></trkpt>
<trkpt lat="37.136474" lon="-7.625669"><ele>25.6</ele></trkpt>
<trkpt lat="37.136190" lon="-7.625960"><ele>24.3</ele></trkpt>
<trkpt lat="37.135876" lon="-7.626290"><ele>23.3</ele></trkpt>
<trkpt lat="37.135471" lon="-7.626940"><ele>22.6</ele></trkpt>
<trkpt lat="37.135255" lon="-7.627407"><ele>22.1</ele></trkpt>
<trkpt lat="37.135158" lon="-7.627689"><ele>21.3</ele></trkpt>
<trkpt lat="37.134962" lon="-7.628262"><ele>20.5</ele></trkpt>
<trkpt lat="37.134896" lon="-7.628657"><ele>19.8</ele></trkpt>
<trkpt lat="37.134848" lon="-7.629252"><ele>19.7</ele></trkpt>
<trkpt lat="37.134810" lon="-7.630654"><ele>19.6</ele></trkpt>
<trkpt lat="37.134792" lon="-7.631298"><ele>19.1</ele></trkpt>
<trkpt lat="37.134750" lon="-7.632825"><ele>18.0</ele></trkpt>
<trkpt lat="37.134738" lon="-7.633331"><ele>16.8</ele></trkpt>
<trkpt lat="37.134749" lon="-7.633610"><ele>15.9</ele></trkpt>
<trkpt lat="37.134736" lon="-7.634036"><ele>15.0</ele></trkpt>
<trkpt lat="37.134751" lon="-7.634404"><ele>14.4</ele></trkpt>
<trkpt lat="37.134836" lon="-7.634628"><ele>14.1</ele></trkpt>
<trkpt lat="37.134836" lon="-7.634880"><ele>13.8</ele></trkpt>
<trkpt lat="37.134709" lon="-7.635217"><ele>14.2</ele></trkpt>
<trkpt lat="37.134648" lon="-7.637402"><ele>15.6</ele></trkpt>
<trkpt lat="37.134636" lon="-7.637900"><ele>18.0</ele></trkpt>
<trkpt lat="37.134619" lon="-7.638390"><ele>21.0</ele></trkpt>
<trkpt lat="37.134601" lon="-7.639200"><ele>23.2</ele></trkpt>
<trkpt lat="37.134577" lon="-7.640202"><ele>24.2</ele></trkpt>
<trkpt lat="37.134572" lon="-7.640920"><ele>24.3</ele></trkpt>
<trkpt lat="37.134675" lon="-7.641159"><ele>24.4</ele></trkpt>
<trkpt lat="37.134716" lon="-7.641387"><ele>24.5</ele></trkpt>
<trkpt lat="37.134547" lon="-7.641615"><ele>23.8</ele></trkpt>
<trkpt lat="37.134365" lon="-7.641715"><ele>22.6</ele></trkpt>
<trkpt lat="37.134244" lon="-7.641937"><ele>22.0</ele></trkpt>
<trkpt lat="37.134224" lon="-7.642206"><ele>22.0</ele></trkpt>
<trkpt lat="37.134204" lon="-7.642465"><ele>22.0</ele></trkpt>
<trkpt lat="37.134120" lon="-7.642824"><ele>21.6</ele></trkpt>
<trkpt lat="37.134042" lon="-7.643107"><ele>21.2</ele></trkpt>
<trkpt lat="37.133951" lon="-7.643364"><ele>20.9</ele></trkpt>
<trkpt lat="37.133859" lon="-7.643620"><ele>20.9</ele></trkpt>
<trkpt lat="37.133777" lon="-7.643853"><ele>21.2</ele></trkpt>
<trkpt lat="37.133323" lon="-7.644820"><ele>21.8</ele></trkpt>
<trkpt lat="37.133191" lon="-7.645101"><ele>22.7</ele></trkpt>
<trkpt lat="37.133007" lon="-7.645489"><ele>23.9</ele></trkpt>
<trkpt lat="37.132628" lon="-7.646288"><ele>24.5</ele></trkpt>
<trkpt lat="37.132186" lon="-7.647219"><ele>23.7</ele></trkpt>
<trkpt lat="37.131829" lon="-7.647968"><ele>22.2</ele></trkpt>
<trkpt lat="37.131694" lon="-7.648244"><ele>20.9</ele></trkpt>
<trkpt lat="37.131627" lon="-7.648514"><ele>20.7</ele></trkpt>
<trkpt lat="37.131644" lon="-7.648836"><ele>21.1</ele></trkpt>
<trkpt lat="37.131698" lon="-7.649712"><ele>21.5</ele></trkpt>
<trkpt lat="37.131730" lon="-7.650051"><ele>21.8</ele></trkpt>
<trkpt lat="37.131600" lon="-7.650406"><ele>21.7</ele></trkpt>
<trkpt lat="37.131028" lon="-7.650758"><ele>21.6</ele></trkpt>
<trkpt lat="37.130691" lon="-7.650949"><ele>21.4</ele></trkpt>
<trkpt lat="37.130019" lon="-7.651330"><ele>20.4</ele></trkpt>
<trkpt lat="37.129636" lon="-7.651547"><ele>19.0</ele></trkpt>
<trkpt lat="37.129424" lon="-7.651512"><ele>17.7</ele></trkpt>
<trkpt lat="37.129278" lon="-7.651371"><ele>17.1</ele></trkpt>
<trkpt lat="37.128985" lon="-7.651194"><ele>16.5</ele></trkpt>
<trkpt lat="37.128840" lon="-7.650967"><ele>15.9</ele></trkpt>
<trkpt lat="37.128677" lon="-7.650790"><ele>15.4</ele></trkpt>
<trkpt lat="37.128450" lon="-7.650641"><ele>14.6</ele></trkpt>
<trkpt lat="37.128221" lon="-7.650443"><ele>13.7</ele></trkpt>
<trkpt lat="37.128056" lon="-7.650236"><ele>12.3</ele></trkpt>
<trkpt lat="37.127834" lon="-7.650084"><ele>11.3</ele></trkpt>
<trkpt lat="37.127790" lon="-7.649826"><ele>10.5</ele></trkpt>
<trkpt lat="37.127599" lon="-7.649671"><ele>9.7</ele></trkpt>
<trkpt lat="37.127345" lon="-7.649601"><ele>8.4</ele></trkpt>
<trkpt lat="37.127279" lon="-7.649605"><ele>7.1</ele></trkpt>
</trkseg></trk></gpx>
